NORAD_CAT_ID,OBJECT_NAME,OBJECT_TYPE,EPOCH,MEAN_MOTION,ECCENTRICITY,INCLINATION,RA_OF_ASC_NODE,ARG_OF_PERICENTER,MEAN_ANOMALY,BSTAR,MEAN_MOTION_DOT,MEAN_MOTION_DDOT,TLE_LINE0,TLE_LINE1,TLE_LINE2,SEMIMAJOR_AXIS,PERIOD,APOGEE,PERIGEE,DECAYED
53869.0,STARLINK-4810,PAYLOAD,2024-04-09 21:39:44,15.08846194,0.000205,53.2187,170.7692,92.8655,267.2572,6.111e-05,6.85e-06,0.0,0 STARLINK-4810,1 53869U 22114BD  24100.90259313  .00000685  00000-0  61110-4 0  9992,2 53869  53.2187 170.7692 0002050  92.8655 267.2572 15.08846194 87768,6917.861,95.437,541.145,538.308,0.0
53869.0,STARLINK-4810,PAYLOAD,2024-04-10 04:01:16,15.0884046,0.0002022,53.2193,169.5803,94.6989,265.4234,5.3314e-05,5.6e-06,0.0,0 STARLINK-4810,1 53869U 22114BD  24101.16755642  .00000560  00000-0  53314-4 0  9996,2 53869  53.2193 169.5803 0002022  94.6989 265.4234 15.08840460 87264,6917.879,95.438,541.143,538.345,0.0
53869.0,STARLINK-4810,PAYLOAD,2024-04-10 10:22:50,15.08833344,0.0002056,53.2198,168.3902,94.2631,265.8596,-2.1242e-05,-6.26e-06,0.0,0 STARLINK-4810,1 53869U 22114BD  24101.43252449 -.00000626  00000-0 -21242-4 0  9993,2 53869  53.2198 168.3902 0002056  94.2631 265.8596 15.08833344 87306,6917.901,95.438,541.188,538.343,0.0
53869.0,STARLINK-4810,PAYLOAD,2024-04-10 13:33:36,15.08834075,0.00022,53.2201,167.7935,92.9559,267.1685,-1.8524e-05,-5.83e-06,0.0,0 STARLINK-4810,1 53869U 22114BD  24101.56500429 -.00000583  00000-0 -18524-4 0  9992,2 53869  53.2201 167.7935 0002200  92.9559 267.1685 15.08834075 87862,6917.898,95.438,541.285,538.242,0.0
53869.0,STARLINK-4810,PAYLOAD,2024-04-10 21:30:32,15.08826595,0.0002106,53.2188,166.3061,88.569,271.5544,-8.0394e-05,-1.567e-05,0.0,0 STARLINK-4810,1 53869U 22114BD  24101.89621223 -.00001567  00000-0 -80394-4 0  9991,2 53869  53.2188 166.3061 0002106  88.5690 271.5544 15.08826595 87910,6917.921,95.438,541.243,538.329,0.0
53869.0,STARLINK-4810,PAYLOAD,2024-04-11 11:49:00,15.08841383,0.0001485,53.218,163.6303,87.5558,272.5604,2.1972e-05,6.2e-07,0.0,0 STARLINK-4810,1 53869U 22114BD  24102.49236623  .00000062  00000-0  21972-4 0  9998,2 53869  53.2180 163.6303 0001485  87.5558 272.5604 15.08841383 87462,6917.876,95.437,540.768,538.714,0.0
53869.0,STARLINK-4810,PAYLOAD,2024-04-11 21:21:19,15.08844653,0.0001613,53.2183,161.8476,86.669,273.4487,3.4e-05,2.53e-06,0.0,0 STARLINK-4810,1 53869U 22114BD  24102.88980393  .00000253  00000-0  34000-4 0  9999,2 53869  53.2183 161.8476 0001613  86.6690 273.4487 15.08844653 88065,6917.866,95.437,540.847,538.615,0.0
53869.0,STARLINK-4810,PAYLOAD,2024-04-12 10:04:23,15.08847801,0.0001489,53.2168,159.4676,91.933,268.1833,0.00014815,2.071e-05,0.0,0 STARLINK-4810,1 53869U 22114BD  24103.41971741  .00002071  00000-0  14815-3 0  9997,2 53869  53.2168 159.4676 0001489  91.9330 268.1833 15.08847801 87607,6917.857,95.437,540.752,538.691,0.0
53869.0,STARLINK-4810,PAYLOAD,2024-04-13 03:33:39,15.08779636,0.0001757,53.2167,156.1948,105.5315,254.5871,0.0010293,0.00016104,0.0,0 STARLINK-4810,1 53869U 22114BD  24104.14836982  .00016104  00000-0  10293-2 0  9992,2 53869  53.2167 156.1948 0001757 105.5315 254.5871 15.08779636 87718,6918.065,95.441,541.145,538.714,0.0
53869.0,STARLINK-4810,PAYLOAD,2024-04-13 09:55:10,15.08850624,0.0001347,53.2166,155.0072,88.636,271.4786,6.0023e-05,6.68e-06,0.0,0 STARLINK-4810,1 53869U 22114BD  24104.41331790  .00000668  00000-0  60023-4 0  9995,2 53869  53.2166 155.0072 0001347  88.6360 271.4786 15.08850624 87753,6917.848,95.437,540.645,538.781,0.0
53869.0,STARLINK-4810,PAYLOAD,2024-04-14 09:45:57,15.08848869,0.0001468,53.2168,150.5446,99.9796,260.1362,-5.9732e-05,-1.239e-05,0.0,0 STARLINK-4810,1 53869U 22114BD  24105.40691599 -.00001239  00000-0 -59732-4 0  9993,2 53869  53.2168 150.5446 0001468  99.9796 260.1362 15.08848869 87902,6917.853,95.437,540.734,538.703,0.0
53869.0,STARLINK-4810,PAYLOAD,2024-04-15 09:36:44,15.08839436,0.0001469,53.2168,146.0835,102.3692,257.7465,-3.1862e-05,-7.95e-06,0.0,0 STARLINK-4810,1 53869U 22114BD  24106.40051682 -.00000795  00000-0 -31862-4 0  9997,2 53869  53.2168 146.0835 0001469 102.3692 257.7465 15.08839436 88052,6917.882,95.438,540.763,538.731,0.0
53869.0,STARLINK-4810,PAYLOAD,2024-04-16 01:30:35,15.08864785,0.0001572,53.2176,143.1169,103.958,256.1587,-0.00024312,-4.158e-05,0.0,0 STARLINK-4810,1 53869U 22114BD  24107.06291104 -.00004158  00000-0 -24312-3 0  9993,2 53869  53.2176 143.1169 0001572 103.9580 256.1587 15.08864785 88151,6917.805,95.436,540.757,538.582,0.0
53869.0,STARLINK-4810,PAYLOAD,2024-04-16 09:27:31,15.08834838,0.0001641,53.2184,141.629,104.0996,256.0178,1.9777e-05,2.7e-07,0.0,0 STARLINK-4810,1 53869U 22114BD  24107.39411906  .00000027  00000-0  19777-4 0  9992,2 53869  53.2184 141.6290 0001641 104.0996 256.0178 15.08834838 88205,6917.896,95.438,540.896,538.626,0.0
53869.0,STARLINK-4810,PAYLOAD,2024-04-17 10:53:41,15.08839486,0.0001415,53.2169,136.8698,95.7644,264.351,0.00012453,1.694e-05,0.0,0 STARLINK-4810,1 53869U 22114BD  24108.45395441  .00001694  00000-0  12453-3 0  9999,2 53869  53.2169 136.8698 0001415  95.7644 264.3510 15.08839486 88364,6917.882,95.438,540.726,538.768,0.0
53869.0,STARLINK-4810,PAYLOAD,2024-04-18 10:44:29,15.08829614,0.0001548,53.2167,132.403,120.1114,240.0032,-4.5342e-05,-1.009e-05,0.0,0 STARLINK-4810,1 53869U 22114BD  24109.44756720 -.00001009  00000-0 -45342-4 0  9996,2 53869  53.2167 132.4030 0001548 120.1114 240.0032 15.08829614 88515,6917.912,95.438,540.848,538.706,0.0
53869.0,STARLINK-4810,PAYLOAD,2024-04-19 07:24:30,15.08842814,0.0001317,53.2161,128.5384,83.0278,277.0864,5.446e-05,5.79e-06,0.0,0 STARLINK-4810,1 53869U 22114BD  24110.30868159  .00000579  00000-0  54460-4 0  9993,2 53869  53.2161 128.5384 0001317  83.0278 277.0864 15.08842814 88643,6917.872,95.437,540.648,538.826,0.0
53869.0,STARLINK-4810,PAYLOAD,2024-04-20 00:53:42,15.08854355,0.0001217,53.2166,125.2666,90.7829,269.3303,0.00029887,4.474e-05,0.0,0 STARLINK-4810,1 53869U 22114BD  24111.03730260  .00004474  00000-0  29887-3 0  9997,2 53869  53.2166 125.2666 0001217  90.7829 269.3303 15.08854355 88758,6917.837,95.437,540.543,538.86,0.0
53869.0,STARLINK-4810,PAYLOAD,2024-04-20 10:26:04,15.08813109,0.0001386,53.2172,123.4834,81.0122,279.1027,-5.2628e-05,-1.125e-05,0.0,0 STARLINK-4810,1 53869U 22114BD  24111.43477868 -.00001125  00000-0 -52628-4 0  9995,2 53869  53.2172 123.4834 0001386  81.0122 279.1027 15.08813109 88819,6917.963,95.439,540.786,538.869,0.0
53869.0,STARLINK-4810,PAYLOAD,2024-04-21 03:55:18,15.08823639,0.0001609,53.217,120.2191,82.2004,277.9171,-0.00021629,-3.727e-05,0.0,0 STARLINK-4810,1 53869U 22114BD  24112.16341195 -.00003727  00000-0 -21629-3 0  9995,2 53869  53.2170 120.2191 0001609  82.2004 277.9171 15.08823639 88925,6917.93,95.439,540.908,538.682,0.0
53869.0,STARLINK-4810,PAYLOAD,2024-04-21 10:16:50,15.08831684,0.0001403,53.2168,119.0255,96.7496,263.3656,-0.00020199,-3.5e-05,0.0,0 STARLINK-4810,1 53869U 22114BD  24112.42836759 -.00003500  00000-0 -20199-3 0  9999,2 53869  53.2168 119.0255 0001403  96.7496 263.3656 15.08831684 89507,6917.906,95.438,540.741,538.8,0.0
53869.0,STARLINK-4810,PAYLOAD,2024-04-22 03:46:07,15.08800985,0.000233,53.2165,115.756,92.1553,267.9706,0.0017468,0.00027592,0.0,0 STARLINK-4810,1 53869U 22114BD  24113.15703423  .00027592  00000-0  17468-2 0  9990,2 53869  53.2165 115.7560 0002330  92.1553 267.9706 15.08800985 89078,6918.0,95.44,541.477,538.253,0.0
53869.0,STARLINK-4810,PAYLOAD,2024-04-22 10:07:38,15.08841957,0.0001472,53.2162,114.5648,91.0327,269.0834,0.00065171,0.000101,0.0,0 STARLINK-4810,1 53869U 22114BD  24113.42197355  .00010100  00000-0  65171-3 0  9993,2 53869  53.2162 114.5648 0001472  91.0327 269.0834 15.08841957 89116,6917.874,95.437,540.758,538.721,0.0
53869.0,STARLINK-4810,PAYLOAD,2024-04-23 06:47:39,15.08844952,0.0001445,53.2163,110.6978,98.3445,261.7711,0.00025011,3.695e-05,0.0,0 STARLINK-4810,1 53869U 22114BD  24114.28309113  .00003695  00000-0  25011-3 0  9995,2 53869  53.2163 110.6978 0001445  98.3445 261.7711 15.08844952 89246,6917.865,95.437,540.73,538.731,0.0
53869.0,STARLINK-4810,PAYLOAD,2024-04-24 03:27:39,15.08839418,0.0001441,53.2163,106.8316,99.4449,260.6706,2.1912e-05,6.1e-07,0.0,0 STARLINK-4810,1 53869U 22114BD  24115.14421217  .00000061  00000-0  21912-4 0  9992,2 53869  53.2163 106.8316 0001441  99.4449 260.6706 15.08839418 89378,6917.882,95.438,540.744,538.75,0.0
53869.0,STARLINK-4810,PAYLOAD,2024-04-25 04:53:50,15.08842889,0.0001468,53.2169,102.0749,100.0816,260.0342,0.00011392,1.526e-05,0.0,0 STARLINK-4810,1 53869U 22114BD  24116.20405145  .00001526  00000-0  11392-3 0  9999,2 53869  53.2169 102.0749 0001468 100.0816 260.0342 15.08842889 89532,6917.872,95.437,540.752,538.721,0.0
53869.0,STARLINK-4810,PAYLOAD,2024-04-25 08:04:36,15.08846173,0.0001434,53.217,101.4797,96.4602,263.6554,0.00015193,2.131e-05,0.0,0 STARLINK-4810,1 53869U 22114BD  24116.33652970  .00002131  00000-0  15193-3 0  9999,2 53869  53.2170 101.4797 0001434  96.4602 263.6554 15.08846173 90091,6917.862,95.437,540.719,538.734,0.0
53869.0,STARLINK-4810,PAYLOAD,2024-04-26 04:44:37,15.08837667,0.000147,53.2175,97.6128,99.5825,260.5333,6.1976e-05,6.98e-06,0.0,0 STARLINK-4810,1 53869U 22114BD  24117.19765427  .00000698  00000-0  61976-4 0  9993,2 53869  53.2175  97.6128 0001470  99.5825 260.5333 15.08837667 89683,6917.888,95.438,540.769,538.736,0.0
53869.0,STARLINK-4810,PAYLOAD,2024-04-26 06:20:00,15.08837187,0.0001382,53.2169,97.3136,94.9042,265.2108,4.9102e-05,4.94e-06,0.0,0 STARLINK-4810,1 53869U 22114BD  24117.26389448  .00000494  00000-0  49102-4 0  9997,2 53869  53.2169  97.3136 0001382  94.9042 265.2108 15.08837187 90236,6917.889,95.438,540.71,538.798,0.0
53869.0,STARLINK-4810,PAYLOAD,2024-04-26 15:52:19,15.08842202,0.000139,53.2173,95.5303,95.7167,264.3983,9.5814e-05,1.237e-05,0.0,0 STARLINK-4810,1 53869U 22114BD  24117.66133232  .00001237  00000-0  95814-4 0  9996,2 53869  53.2173  95.5303 0001390  95.7167 264.3983 15.08842202 90294,6917.874,95.437,540.7,538.777,0.0
